[{"OBJECT_NAME":"STARLINK-11323 [DTC]","OBJECT_ID":"2024-184B","EPOCH":"2026-03-09T17:27:43.901280","MEAN_MOTION":15.69701251,"ECCENTRICITY":6.953e-5,"INCLINATION":53.1595,"RA_OF_ASC_NODE":236.0502,"ARG_OF_PERICENTER":86.084,"MEAN_ANOMALY":274.0257,"EPHEMERIS_TYPE":0,"CLASSIFICATION_TYPE":"U","NORAD_CAT_ID":61533,"ELEMENT_SET_NO":999,"REV_AT_EPOCH":8042,"BSTAR":8.909766e-6,"MEAN_MOTION_DOT":4.91e-6,"MEAN_MOTION_DDOT":0},{"OBJECT_NAME":"JIELONG-3 R\/B","OBJECT_ID":"2023-190C","EPOCH":"2026-03-09T21:26:26.113920","MEAN_MOTION":15.18151254,"ECCENTRICITY":0.02497151,"INCLINATION":86.5597,"RA_OF_ASC_NODE":295.7177,"ARG_OF_PERICENTER":271.8036,"MEAN_ANOMALY":85.4623,"EPHEMERIS_TYPE":0,"CLASSIFICATION_TYPE":"U","NORAD_CAT_ID":58507,"ELEMENT_SET_NO":999,"REV_AT_EPOCH":12333,"BSTAR":0.00045620602,"MEAN_MOTION_DOT":0.00021606,"MEAN_MOTION_DDOT":0}]
